[{"OBJECT_NAME":"STARLINK-30789","OBJECT_ID":"2023-166S","EPOCH":"2025-12-19T20:07:37.313184","MEAN_MOTION":15.30186392,"ECCENTRICITY":0.0001377,"INCLINATION":53.1592,"RA_OF_ASC_NODE":230.5243,"ARG_OF_PERICENTER":98.3009,"MEAN_ANOMALY":261.8148,"EPHEMERIS_TYPE":0,"CLASSIFICATION_TYPE":"U","NORAD_CAT_ID":58166,"ELEMENT_SET_NO":999,"REV_AT_EPOCH":12095,"BSTAR":3.7016e-5,"MEAN_MOTION_DOT":7.37e-6,"MEAN_MOTION_DDOT":0},{"OBJECT_NAME":"STARLINK-30811","OBJECT_ID":"2023-166T","EPOCH":"2025-12-19T16:30:37.952928","MEAN_MOTION":15.3019556,"ECCENTRICITY":0.0001041,"INCLINATION":53.1576,"RA_OF_ASC_NODE":231.0029,"ARG_OF_PERICENTER":80.2863,"MEAN_ANOMALY":279.8255,"EPHEMERIS_TYPE":0,"CLASSIFICATION_TYPE":"U","NORAD_CAT_ID":58167,"ELEMENT_SET_NO":999,"REV_AT_EPOCH":12078,"BSTAR":1.8439e-5,"MEAN_MOTION_DOT":1.87e-6,"MEAN_MOTION_DDOT":0},{"OBJECT_NAME":"STARLINK-30812","OBJECT_ID":"2023-166U","EPOCH":"2025-12-19T16:26:04.595424","MEAN_MOTION":15.30193028,"ECCENTRICITY":0.0001281,"INCLINATION":53.1604,"RA_OF_ASC_NODE":230.9866,"ARG_OF_PERICENTER":81.3906,"MEAN_ANOMALY":278.7239,"EPHEMERIS_TYPE":0,"CLASSIFICATION_TYPE":"U","NORAD_CAT_ID":58168,"ELEMENT_SET_NO":999,"REV_AT_EPOCH":12078,"BSTAR":2.1391e-5,"MEAN_MOTION_DOT":2.74e-6,"MEAN_MOTION_DDOT":0},{"OBJECT_NAME":"STARLINK-30771","OBJECT_ID":"2023-166V","EPOCH":"2025-12-19T19:53:56.393088","MEAN_MOTION":15.30180833,"ECCENTRICITY":0.0001136,"INCLINATION":53.1594,"RA_OF_ASC_NODE":230.4634,"ARG_OF_PERICENTER":98.3047,"MEAN_ANOMALY":261.8082,"EPHEMERIS_TYPE":0,"CLASSIFICATION_TYPE":"U","NORAD_CAT_ID":58169,"ELEMENT_SET_NO":999,"REV_AT_EPOCH":12095,"BSTAR":-4.835e-5,"MEAN_MOTION_DOT":-1.79e-5,"MEAN_MOTION_DDOT":0},{"OBJECT_NAME":"STARLINK-30764","OBJECT_ID":"2023-166W","EPOCH":"2025-12-19T16:41:16.215648","MEAN_MOTION":15.30193122,"ECCENTRICITY":0.0001262,"INCLINATION":53.16,"RA_OF_ASC_NODE":231.0503,"ARG_OF_PERICENTER":99.8392,"MEAN_ANOMALY":260.2751,"EPHEMERIS_TYPE":0,"CLASSIFICATION_TYPE":"U","NORAD_CAT_ID":58170,"ELEMENT_SET_NO":999,"REV_AT_EPOCH":12093,"BSTAR":2.3573e-5,"MEAN_MOTION_DOT":3.39e-6,"MEAN_MOTION_DDOT":0},{"OBJECT_NAME":"STARLINK-30752","OBJECT_ID":"2023-166X","EPOCH":"2025-12-19T16:36:42.712128","MEAN_MOTION":15.30194777,"ECCENTRICITY":0.0001196,"INCLINATION":53.159,"RA_OF_ASC_NODE":231.0218,"ARG_OF_PERICENTER":87.5106,"MEAN_ANOMALY":272.6032,"EPHEMERIS_TYPE":0,"CLASSIFICATION_TYPE":"U","NORAD_CAT_ID":58171,"ELEMENT_SET_NO":999,"REV_AT_EPOCH":12093,"BSTAR":5.231e-5,"MEAN_MOTION_DOT":1.19e-5,"MEAN_MOTION_DDOT":0},{"OBJECT_NAME":"STARLINK-30753","OBJECT_ID":"2023-167A","EPOCH":"2025-12-19T16:23:47.444064","MEAN_MOTION":15.02529267,"ECCENTRICITY":9.84e-5,"INCLINATION":43.0041,"RA_OF_ASC_NODE":220.3863,"ARG_OF_PERICENTER":262.9538,"MEAN_ANOMALY":97.1193,"EPHEMERIS_TYPE":0,"CLASSIFICATION_TYPE":"U","NORAD_CAT_ID":58175,"ELEMENT_SET_NO":999,"REV_AT_EPOCH":11892,"BSTAR":9.8028e-5,"MEAN_MOTION_DOT":1.121e-5,"MEAN_MOTION_DDOT":0},{"OBJECT_NAME":"STARLINK-30824","OBJECT_ID":"2023-167B","EPOCH":"2025-12-19T16:22:09.842304","MEAN_MOTION":15.02533201,"ECCENTRICITY":9.99e-5,"INCLINATION":43.0026,"RA_OF_ASC_NODE":220.3761,"ARG_OF_PERICENTER":265.4012,"MEAN_ANOMALY":94.6716,"EPHEMERIS_TYPE":0,"CLASSIFICATION_TYPE":"U","NORAD_CAT_ID":58176,"ELEMENT_SET_NO":999,"REV_AT_EPOCH":11892,"BSTAR":5.9827e-5,"MEAN_MOTION_DOT":6.05e-6,"MEAN_MOTION_DDOT":0},{"OBJECT_NAME":"STARLINK-30791","OBJECT_ID":"2023-167C","EPOCH":"2025-12-19T00:48:51.487200","MEAN_MOTION":15.0254485,"ECCENTRICITY":8.388e-5,"INCLINATION":43.0019,"RA_OF_ASC_NODE":224.0988,"ARG_OF_PERICENTER":276.9165,"MEAN_ANOMALY":83.1582,"EPHEMERIS_TYPE":0,"CLASSIFICATION_TYPE":"U","NORAD_CAT_ID":58177,"ELEMENT_SET_NO":999,"REV_AT_EPOCH":11882,"BSTAR":9.747272e-5,"MEAN_MOTION_DOT":1.114e-5,"MEAN_MOTION_DDOT":0},{"OBJECT_NAME":"STARLINK-30810","OBJECT_ID":"2023-167D","EPOCH":"2025-12-19T16:12:44.713728","MEAN_MOTION":15.02534202,"ECCENTRICITY":0.0001045,"INCLINATION":43.0028,"RA_OF_ASC_NODE":221.1733,"ARG_OF_PERICENTER":271.3097,"MEAN_ANOMALY":88.7626,"EPHEMERIS_TYPE":0,"CLASSIFICATION_TYPE":"U","NORAD_CAT_ID":58178,"ELEMENT_SET_NO":999,"REV_AT_EPOCH":11891,"BSTAR":4.9121e-5,"MEAN_MOTION_DOT":4.6e-6,"MEAN_MOTION_DDOT":0},{"OBJECT_NAME":"STARLINK-30819","OBJECT_ID":"2023-167E","EPOCH":"2025-12-19T14:32:14.441280","MEAN_MOTION":15.02526699,"ECCENTRICITY":9.59e-5,"INCLINATION":43.0032,"RA_OF_ASC_NODE":221.5067,"ARG_OF_PERICENTER":273.6919,"MEAN_ANOMALY":86.3813,"EPHEMERIS_TYPE":0,"CLASSIFICATION_TYPE":"U","NORAD_CAT_ID":58179,"ELEMENT_SET_NO":999,"REV_AT_EPOCH":11890,"BSTAR":6.008e-5,"MEAN_MOTION_DOT":6.08e-6,"MEAN_MOTION_DDOT":0},{"OBJECT_NAME":"STARLINK-30806","OBJECT_ID":"2023-167F","EPOCH":"2025-12-19T09:00:43.041024","MEAN_MOTION":15.0313041,"ECCENTRICITY":0.0001479,"INCLINATION":43.0024,"RA_OF_ASC_NODE":222.3584,"ARG_OF_PERICENTER":252.6912,"MEAN_ANOMALY":107.3769,"EPHEMERIS_TYPE":0,"CLASSIFICATION_TYPE":"U","NORAD_CAT_ID":58180,"ELEMENT_SET_NO":999,"REV_AT_EPOCH":11887,"BSTAR":0.00024139,"MEAN_MOTION_DOT":3.109e-5,"MEAN_MOTION_DDOT":0},{"OBJECT_NAME":"STARLINK-30821","OBJECT_ID":"2023-167G","EPOCH":"2025-12-19T00:44:03.633504","MEAN_MOTION":15.02534851,"ECCENTRICITY":9.419e-5,"INCLINATION":43.0035,"RA_OF_ASC_NODE":224.0684,"ARG_OF_PERICENTER":271.6392,"MEAN_ANOMALY":88.4343,"EPHEMERIS_TYPE":0,"CLASSIFICATION_TYPE":"U","NORAD_CAT_ID":58181,"ELEMENT_SET_NO":999,"REV_AT_EPOCH":11882,"BSTAR":2.4649594e-5,"MEAN_MOTION_DOT":1.29e-6,"MEAN_MOTION_DDOT":0},{"OBJECT_NAME":"STARLINK-30778","OBJECT_ID":"2023-167H","EPOCH":"2025-12-19T16:36:33.973632","MEAN_MOTION":15.02516211,"ECCENTRICITY":9.16e-5,"INCLINATION":43.0026,"RA_OF_ASC_NODE":220.436,"ARG_OF_PERICENTER":257.198,"MEAN_ANOMALY":102.876,"EPHEMERIS_TYPE":0,"CLASSIFICATION_TYPE":"U","NORAD_CAT_ID":58182,"ELEMENT_SET_NO":999,"REV_AT_EPOCH":11892,"BSTAR":7.7859e-5,"MEAN_MOTION_DOT":8.48e-6,"MEAN_MOTION_DDOT":0},{"OBJECT_NAME":"STARLINK-30809","OBJECT_ID":"2023-167J","EPOCH":"2025-12-19T15:58:20.832096","MEAN_MOTION":15.02545611,"ECCENTRICITY":0.0001212,"INCLINATION":43.0028,"RA_OF_ASC_NODE":221.0981,"ARG_OF_PERICENTER":260.7758,"MEAN_ANOMALY":99.2948,"EPHEMERIS_TYPE":0,"CLASSIFICATION_TYPE":"U","NORAD_CAT_ID":58183,"ELEMENT_SET_NO":999,"REV_AT_EPOCH":11891,"BSTAR":0.00011186,"MEAN_MOTION_DOT":1.308e-5,"MEAN_MOTION_DDOT":0},{"OBJECT_NAME":"STARLINK-30801","OBJECT_ID":"2023-167K","EPOCH":"2025-12-18T01:36:05.481504","MEAN_MOTION":15.02542966,"ECCENTRICITY":0.00011042,"INCLINATION":43.0036,"RA_OF_ASC_NODE":229.7419,"ARG_OF_PERICENTER":253.2908,"MEAN_ANOMALY":106.7814,"EPHEMERIS_TYPE":0,"CLASSIFICATION_TYPE":"U","NORAD_CAT_ID":58184,"ELEMENT_SET_NO":999,"REV_AT_EPOCH":11867,"BSTAR":8.4617493e-5,"MEAN_MOTION_DOT":9.4e-6,"MEAN_MOTION_DDOT":0},{"OBJECT_NAME":"STARLINK-30793","OBJECT_ID":"2023-167L","EPOCH":"2025-12-19T16:31:43.025952","MEAN_MOTION":15.02551254,"ECCENTRICITY":0.0001241,"INCLINATION":43.002,"RA_OF_ASC_NODE":220.4112,"ARG_OF_PERICENTER":267.6966,"MEAN_ANOMALY":92.3734,"EPHEMERIS_TYPE":0,"CLASSIFICATION_TYPE":"U","NORAD_CAT_ID":58185,"ELEMENT_SET_NO":999,"REV_AT_EPOCH":11892,"BSTAR":0.00013289,"MEAN_MOTION_DOT":1.593e-5,"MEAN_MOTION_DDOT":0}]
