STARLINK-30789          
1 58166U 23166S   25353.83862631  .00000737  00000+0  37016-4 0  9996
2 58166  53.1592 230.5243 0001377  98.3009 261.8148 15.30186392120954
STARLINK-30811          
1 58167U 23166T   25353.68793927  .00000187  00000+0  18439-4 0  9998
2 58167  53.1576 231.0029 0001041  80.2863 279.8255 15.30195560120787
STARLINK-30812          
1 58168U 23166U   25353.68477541  .00000274  00000+0  21391-4 0  9998
2 58168  53.1604 230.9866 0001281  81.3906 278.7239 15.30193028120780
STARLINK-30771          
1 58169U 23166V   25353.82912492 -.00001790  00000+0 -48350-4 0  9994
2 58169  53.1594 230.4634 0001136  98.3047 261.8082 15.30180833120958
STARLINK-30764          
1 58170U 23166W   25353.69532657  .00000339  00000+0  23573-4 0  9998
2 58170  53.1600 231.0503 0001262  99.8392 260.2751 15.30193122120938
STARLINK-30752          
1 58171U 23166X   25353.69216102  .00001190  00000+0  52310-4 0  9990
2 58171  53.1590 231.0218 0001196  87.5106 272.6032 15.30194777120939
STARLINK-30753          
1 58175U 23167A   25353.68318801  .00001121  00000+0  98028-4 0  9993
2 58175  43.0041 220.3863 0000984 262.9538  97.1193 15.02529267118920
STARLINK-30824          
1 58176U 23167B   25353.68205836  .00000605  00000+0  59827-4 0  9997
2 58176  43.0026 220.3761 0000999 265.4012  94.6716 15.02533201118928
STARLINK-30791          
1 58177U 23167C   25353.03392925  .00001114  00000+0  97473-4 0  9998
2 58177  43.0019 224.0988 0000838 276.9165  83.1582 15.02544850118826
STARLINK-30810          
1 58178U 23167D   25353.67551752  .00000460  00000+0  49121-4 0  9994
2 58178  43.0028 221.1733 0001045 271.3097  88.7626 15.02534202118917
STARLINK-30819          
1 58179U 23167E   25353.60572270  .00000608  00000+0  60080-4 0  9997
2 58179  43.0032 221.5067 0000959 273.6919  86.3813 15.02526699118900
STARLINK-30806          
1 58180U 23167F   25353.37549816  .00003109  00000+0  24139-3 0  9996
2 58180  43.0024 222.3584 0001479 252.6912 107.3769 15.03130410118877
STARLINK-30821          
1 58181U 23167G   25353.03059761  .00000129  00000+0  24650-4 0  9993
2 58181  43.0035 224.0684 0000941 271.6392  88.4343 15.02534851118824
STARLINK-30778          
1 58182U 23167H   25353.69205988  .00000848  00000+0  77859-4 0  9997
2 58182  43.0026 220.4360 0000916 257.1980 102.8760 15.02516211118925
STARLINK-30809          
1 58183U 23167J   25353.66551889  .00001308  00000+0  11186-3 0  9991
2 58183  43.0028 221.0981 0001212 260.7758  99.2948 15.02545611118919
STARLINK-30801          
1 58184U 23167K   25352.06673011  .00000940  00000+0  84617-4 0  9998
2 58184  43.0036 229.7419 0001104 253.2908 106.7814 15.02542966118673
STARLINK-30793          
1 58185U 23167L   25353.68869243  .00001593  00000+0  13289-3 0  9993
2 58185  43.0020 220.4112 0001241 267.6966  92.3734 15.02551254118929
